COMMENT,ORIGINATOR,NORAD_CAT_ID,OBJECT_NAME,OBJECT_TYPE,CLASSIFICATION_TYPE,INTLDES,EPOCH,EPOCH_MICROSECONDS,MEAN_MOTION,ECCENTRICITY,INCLINATION,RA_OF_ASC_NODE,ARG_OF_PERICENTER,MEAN_ANOMALY,EPHEMERIS_TYPE,ELEMENT_SET_NO,REV_AT_EPOCH,BSTAR,MEAN_MOTION_DOT,MEAN_MOTION_DDOT,FILE,TLE_LINE0,TLE_LINE1,TLE_LINE2,OBJECT_ID,OBJECT_NUMBER,SEMIMAJOR_AXIS,PERIOD,APOGEE,PERIGEE,DECAYED
GENERATED VIA SPACETRACK.ORG API,18 SPCS,38778,ASTRA 2F,PAYLOAD,U,12051A,2024-10-12 11:34:45,395904,1.0027152,0.0004243,0.05,247.1661,327.3223,8.9472,0,999,3499,0,1.5e-06,0,4523210,0 ASTRA 2F,1 38778U 12051A   24286.48246986  .00000150  00000-0  00000-0 0  9997,2 38778   0.0500 247.1661 0004243 327.3223   8.9472  1.00271520 34995,2012-051A,38778,42164.806,1436.101,35804.562,35768.781,0
GENERATED VIA SPACETRACK.ORG API,18 SPCS,38778,ASTRA 2F,PAYLOAD,U,12051A,2024-10-12 20:40:42,717792,1.00271674,0.000426,0.0491,246.6796,328.2267,145.3919,0,999,3499,0,1.49e-06,0,4523216,0 ASTRA 2F,1 38778U 12051A   24286.86160553  .00000149  00000-0  00000-0 0  9992,2 38778   0.0491 246.6796 0004260 328.2267 145.3919  1.00271674 34996,2012-051A,38778,42164.763,1436.098,35804.59,35768.666,0
GENERATED VIA SPACETRACK.ORG API,18 SPCS,38778,ASTRA 2F,PAYLOAD,U,12051A,2024-10-13 11:36:16,892640,1.0027186,0.0004297,0.0473,245.7962,330.2592,8.7484,0,999,3500,0,1.48e-06,0,4523218,0 ASTRA 2F,1 38778U 12051A   24287.48352885  .00000148  00000-0  00000-0 0  9991,2 38778   0.0473 245.7962 0004297 330.2592   8.7484  1.00271860 35004,2012-051A,38778,42164.711,1436.096,35804.694,35768.458,0
GENERATED VIA SPACETRACK.ORG API,18 SPCS,38778,ASTRA 2F,PAYLOAD,U,12051A,2024-10-13 11:36:16,892640,1.0027186,0.0004297,0.0473,245.7962,330.2592,8.7484,0,999,4415,0,1.49e-06,0,4523278,0 ASTRA 2F,1 38778U 12051A   24287.48352885  .00000149  00000-0  00000+0 0  9991,2 38778   0.0473 245.7962 0004297 330.2592   8.7484  1.00271860 44150,2012-051A,38778,42164.711,1436.096,35804.694,35768.458,0
GENERATED VIA SPACETRACK.ORG API,18 SPCS,38778,ASTRA 2F,PAYLOAD,U,12051A,2024-10-13 21:13:42,723264,1.00272029,0.0004321,0.0463,245.2895,331.2432,153.0246,0,999,3500,0,1.48e-06,0,4523921,0 ASTRA 2F,1 38778U 12051A   24287.88452226  .00000148  00000-0  00000-0 0  9995,2 38778   0.0463 245.2895 0004321 331.2432 153.0246  1.00272029 35003,2012-051A,38778,42164.664,1436.093,35804.748,35768.309,0
GENERATED VIA SPACETRACK.ORG API,18 SPCS,38778,ASTRA 2F,PAYLOAD,U,12051A,2024-10-14 06:04:42,589344,1.00272154,0.0004342,0.0454,244.6634,332.6617,285.3458,0,999,3501,0,1.48e-06,0,4524553,0 ASTRA 2F,1 38778U 12051A   24288.25327071  .00000148  00000-0  00000-0 0  9996,2 38778   0.0454 244.6634 0004342 332.6617 285.3458  1.00272154 35014,2012-051A,38778,42164.629,1436.092,35804.801,35768.186,0
GENERATED VIA SPACETRACK.ORG API,18 SPCS,38778,ASTRA 2F,PAYLOAD,U,12051A,2024-10-14 16:46:58,508256,1.00272323,0.000437,0.0441,243.9652,333.9495,85.7628,0,999,4417,0,1.48e-06,0,4524702,0 ASTRA 2F,1 38778U 12051A   24288.69928829  .00000148  00000-0  00000+0 0  9991,2 38778   0.0441 243.9652 0004370 333.9495  85.7628  1.00272323 44177,2012-051A,38778,42164.581,1436.089,35804.872,35768.02,0
GENERATED VIA SPACETRACK.ORG API,18 SPCS,38778,ASTRA 2F,PAYLOAD,U,12051A,2024-10-14 20:39:42,807168,1.00272394,0.0004383,0.0437,243.9123,334.2318,143.8779,0,999,3501,0,1.48e-06,0,4524819,0 ASTRA 2F,1 38778U 12051A   24288.86091212  .00000148  00000-0  00000-0 0  9998,2 38778   0.0437 243.9123 0004383 334.2318 143.8779  1.00272394 35011,2012-051A,38778,42164.561,1436.088,35804.907,35767.946,0
GENERATED VIA SPACETRACK.ORG API,18 SPCS,38778,ASTRA 2F,PAYLOAD,U,12051A,2024-10-15 01:21:49,957344,1.00272473,0.0004395,0.043,243.4774,335.1029,214.1655,0,999,3501,0,1.48e-06,0,4525360,0 ASTRA 2F,1 38778U 12051A   24289.05682821  .00000148  00000-0  00000-0 0  9992,2 38778   0.0430 243.4774 0004395 335.1029 214.1655  1.00272473 35016,2012-051A,38778,42164.539,1436.087,35804.935,35767.873,0
GENERATED VIA SPACETRACK.ORG API,18 SPCS,38778,ASTRA 2F,PAYLOAD,U,12051A,2024-10-15 07:11:42,591264,1.00272566,0.0004402,0.0425,243.2075,335.8667,301.3812,0,999,3502,0,1.48e-06,0,4525699,0 ASTRA 2F,1 38778U 12051A   24289.29979851  .00000148  00000-0  00000-0 0  9990,2 38778   0.0425 243.2075 0004402 335.8667 301.3812  1.00272566 35024,2012-051A,38778,42164.513,1436.086,35804.939,35767.817,0
GENERATED VIA SPACETRACK.ORG API,18 SPCS,38778,ASTRA 2F,PAYLOAD,U,12051A,2024-10-16 08:46:42,744000,1.00272999,0.0004662,0.068,254.3516,324.2345,326.6777,0,999,4418,0,1.49e-06,0,4526280,0 ASTRA 2F,1 38778U 12051A   24290.36577250  .00000149  00000-0  00000+0 0  9997,2 38778   0.0680 254.3516 0004662 324.2345 326.6777  1.00272999 44180,2012-051A,38778,42164.392,1436.08,35805.914,35766.6,0
GENERATED VIA SPACETRACK.ORG API,18 SPCS,38778,ASTRA 2F,PAYLOAD,U,12051A,2024-10-16 08:46:42,744000,1.00272999,0.0004662,0.068,254.3516,324.2345,326.6777,0,999,3503,0,1.48e-06,0,4526587,0 ASTRA 2F,1 38778U 12051A   24290.36577250  .00000148  00000-0  00000-0 0  9997,2 38778   0.0680 254.3516 0004662 324.2345 326.6777  1.00272999 35034,2012-051A,38778,42164.392,1436.08,35805.914,35766.6,0
GENERATED VIA SPACETRACK.ORG API,18 SPCS,38778,ASTRA 2F,PAYLOAD,U,12051A,2024-10-16 20:58:42,523392,1.00273204,0.0004699,0.0665,254.0259,325.1252,149.6154,0,999,3503,0,1.49e-06,0,4526592,0 ASTRA 2F,1 38778U 12051A   24290.87410328  .00000149  00000-0  00000-0 0  9996,2 38778   0.0665 254.0259 0004699 325.1252 149.6154  1.00273204 35037,2012-051A,38778,42164.334,1436.077,35806.012,35766.386,0
GENERATED VIA SPACETRACK.ORG API,18 SPCS,38778,ASTRA 2F,PAYLOAD,U,12051A,2024-10-17 13:25:00,801120,1.00273518,0.0004736,0.0643,253.506,326.7304,35.7855,0,999,3504,0,1.49e-06,0,4526960,0 ASTRA 2F,1 38778U 12051A   24291.55903705  .00000149  00000-0  00000-0 0  9998,2 38778   0.0643 253.5060 0004736 326.7304  35.7855  1.00273518 35046,2012-051A,38778,42164.246,1436.072,35806.08,35766.142,0
GENERATED VIA SPACETRACK.ORG API,18 SPCS,38778,ASTRA 2F,PAYLOAD,U,12051A,2024-10-17 15:07:58,624032,1.00273568,0.0004745,0.0642,253.4301,326.9059,61.4977,0,999,4419,0,1.49e-06,0,4527305,0 ASTRA 2F,1 38778U 12051A   24291.63053963  .00000149  00000-0  00000+0 0  9998,2 38778   0.0642 253.4301 0004745 326.9059  61.4977  1.00273568 44193,2012-051A,38778,42164.232,1436.071,35806.104,35766.09,0
GENERATED VIA SPACETRACK.ORG API,18 SPCS,38778,ASTRA 2F,PAYLOAD,U,12051A,2024-10-17 19:47:42,644832,1.00273677,0.0004766,0.0637,253.3963,327.2503,131.3137,0,999,3504,0,1.49e-06,0,4527436,0 ASTRA 2F,1 38778U 12051A   24291.82479913  .00000149  00000-0  00000-0 0  9997,2 38778   0.0637 253.3963 0004766 327.2503 131.3137  1.00273677 35041,2012-051A,38778,42164.202,1436.07,35806.162,35765.971,0
GENERATED VIA SPACETRACK.ORG API,18 SPCS,38778,ASTRA 2F,PAYLOAD,U,12051A,2024-10-18 06:34:35,656320,1.00273899,0.0004782,0.0623,253.0825,328.2575,292.7877,0,999,3505,0,1.49e-06,0,4528056,0 ASTRA 2F,1 38778U 12051A   24292.27402380  .00000149  00000-0  00000-0 0  9991,2 38778   0.0623 253.0825 0004782 328.2575 292.7877  1.00273899 35058,2012-051A,38778,42164.139,1436.067,35806.167,35765.841,0
GENERATED VIA SPACETRACK.ORG API,18 SPCS,38778,ASTRA 2F,PAYLOAD,U,12051A,2024-10-18 20:40:42,619296,1.00274258,0.0004829,0.0606,252.7423,329.4679,144.0306,0,999,3505,0,1.49e-06,0,4528062,0 ASTRA 2F,1 38778U 12051A   24292.86160439  .00000149  00000-0  00000-0 0  9992,2 38778   0.0606 252.7423 0004829 329.4679 144.0306  1.00274258 35055,2012-051A,38778,42164.039,1436.061,35806.265,35765.543,0
GENERATED VIA SPACETRACK.ORG API,18 SPCS,38778,ASTRA 2F,PAYLOAD,U,12051A,2024-10-19 01:41:42,730080,1.00274366,0.0004838,0.0599,252.4727,330.0771,219.1498,0,999,4421,0,1.48e-06,0,4528377,0 ASTRA 2F,1 38778U 12051A   24293.07063345  .00000148  00000-0  00000+0 0  9992,2 38778   0.0599 252.4727 0004838 330.0771 219.1498  1.00274366 44215,2012-051A,38778,42164.008,1436.06,35806.272,35765.474,0
GENERATED VIA SPACETRACK.ORG API,18 SPCS,38778,ASTRA 2F,PAYLOAD,U,12051A,2024-10-19 06:55:42,597408,1.00274481,0.0004841,0.0594,252.4089,330.4092,297.5981,0,999,3506,0,1.48e-06,0,4528833,0 ASTRA 2F,1 38778U 12051A   24293.28868747  .00000148  00000-0  00000-0 0  9995,2 38778   0.0594 252.4089 0004841 330.4092 297.5981  1.00274481 35063,2012-051A,38778,42163.976,1436.058,35806.253,35765.43,0
GENERATED VIA SPACETRACK.ORG API,18 SPCS,38778,ASTRA 2F,PAYLOAD,U,12051A,2024-10-19 21:01:42,753792,1.00274863,0.0004883,0.0576,252.054,331.6843,148.7638,0,999,3506,0,1.47e-06,0,4529168,0 ASTRA 2F,1 38778U 12051A   24293.87618928  .00000147  00000-0  00000-0 0  9993,2 38778   0.0576 252.0540 0004883 331.6843 148.7638  1.00274863 35064,2012-051A,38778,42163.869,1436.053,35806.323,35765.145,0
GENERATED VIA SPACETRACK.ORG API,18 SPCS,38778,ASTRA 2F,PAYLOAD,U,12051A,2024-10-20 03:32:42,633024,1.00275019,0.000489,0.0569,251.7707,332.2929,246.4591,0,999,4422,0,1.47e-06,0,4529460,0 ASTRA 2F,1 38778U 12051A   24294.14771566  .00000147  00000-0  00000+0 0  9991,2 38778   0.0569 251.7707 0004890 332.2929 246.4591  1.00275019 44223,2012-051A,38778,42163.825,1436.051,35806.308,35765.072,0
GENERATED VIA SPACETRACK.ORG API,18 SPCS,38778,ASTRA 2F,PAYLOAD,U,12051A,2024-10-20 08:19:42,610944,1.00275141,0.0004895,0.0563,251.7558,332.5711,318.1445,0,999,3507,0,1.47e-06,0,4529550,0 ASTRA 2F,1 38778U 12051A   24294.34702096  .00000147  00000-0  00000-0 0  9996,2 38778   0.0563 251.7558 0004895 332.5711 318.1445  1.00275141 35072,2012-051A,38778,42163.791,1436.049,35806.295,35765.017,0
GENERATED VIA SPACETRACK.ORG API,18 SPCS,38778,ASTRA 2F,PAYLOAD,U,12051A,2024-10-20 19:42:42,505920,1.00268675,0.0004532,0.055,251.4193,330.386,131.8698,0,999,3507,0,1.45e-06,0,4529875,0 ASTRA 2F,1 38778U 12051A   24294.82132530  .00000145  00000-0  00000-0 0  9997,2 38778   0.0550 251.4193 0004532 330.3860 131.8698  1.00268675 35073,2012-051A,38778,42165.604,1436.141,35806.578,35768.359,0
